{
  "type": "FeatureCollection",
  "features": [
    {
      "type": "Feature",
      "properties": {
        "norad_id": 33664,
        "name": "FENGYUN 1C DEB",
        "group": "fengyun-1c-debris",
        "lat": 59.296360866271534,
        "lon": 118.37406062180379,
        "alt_km": 758.6244415086994,
        "timestamp": "2025-12-10T11:33:53.671955+00:00",
        "meta_object_name": "FENGYUN 1C DEB",
        "meta_object_id": "1999-025DEZ",
        "meta_epoch": "2025-12-02T03:10:30.773568",
        "meta_mean_motion": 14.03976749,
        "meta_eccentricity": 0.01640632,
        "meta_inclination": 98.7018,
        "meta_ra_of_asc_node": 125.3204,
        "meta_arg_of_pericenter": 69.7897,
        "meta_mean_anomaly": 292.0828,
        "meta_ephemeris_type": 0,
        "meta_classification_type": "U",
        "meta_norad_cat_id": 33664,
        "meta_element_set_no": 999,
        "meta_rev_at_epoch": 90590,
        "meta_bstar": 0.00053085125,
        "meta_mean_motion_dot": 9.05e-06,
        "meta_mean_motion_ddot": 0,
        "tle_line1": "1 33664U 99025DEZ 25336.13230062  .00000905  00000+0  53085-3 0  9990",
        "tle_line2": "2 33664  98.7018 125.3204 0164063  69.7897 292.0828 14.03976749905904"
      },
      "geometry": {
        "type": "Point",
        "coordinates": [
          118.37406062180379,
          59.296360866271534
        ]
      }
    },
    {
      "type": "Feature",
      "properties": {
        "norad_id": 33665,
        "name": "FENGYUN 1C DEB",
        "group": "fengyun-1c-debris",
        "lat": -0.763493757796073,
        "lon": -78.11381405759997,
        "alt_km": 824.5373776385959,
        "timestamp": "2025-12-10T11:33:53.671965+00:00",
        "meta_object_name": "FENGYUN 1C DEB",
        "meta_object_id": "1999-025DFA",
        "meta_epoch": "2025-12-09T14:13:34.413024",
        "meta_mean_motion": 14.03614886,
        "meta_eccentricity": 0.0455908,
        "meta_inclination": 99.0228,
        "meta_ra_of_asc_node": 101.1219,
        "meta_arg_of_pericenter": 100.9485,
        "meta_mean_anomaly": 264.3307,
        "meta_ephemeris_type": 0,
        "meta_classification_type": "U",
        "meta_norad_cat_id": 33665,
        "meta_element_set_no": 999,
        "meta_rev_at_epoch": 92547,
        "meta_bstar": 0.001048,
        "meta_mean_motion_dot": 4.143e-05,
        "meta_mean_motion_ddot": 0,
        "tle_line1": "1 33665U 99025DFA 25343.59275941  .00004143  00000+0  10480-2 0  9993",
        "tle_line2": "2 33665  99.0228 101.1219 0455908 100.9485 264.3307 14.03614886925471"
      },
      "geometry": {
        "type": "Point",
        "coordinates": [
          -78.11381405759997,
          -0.763493757796073
        ]
      }
    },
    {
      "type": "Feature",
      "properties": {
        "norad_id": 33673,
        "name": "FENGYUN 1C DEB",
        "group": "fengyun-1c-debris",
        "lat": -14.42116165954219,
        "lon": -151.16684537152483,
        "alt_km": 850.1050243377958,
        "timestamp": "2025-12-10T11:33:53.671975+00:00",
        "meta_object_name": "FENGYUN 1C DEB",
        "meta_object_id": "1999-025DFJ",
        "meta_epoch": "2025-12-07T14:32:49.071264",
        "meta_mean_motion": 13.95529173,
        "meta_eccentricity": 0.01074586,
        "meta_inclination": 99.345,
        "meta_ra_of_asc_node": 28.3453,
        "meta_arg_of_pericenter": 238.21,
        "meta_mean_anomaly": 277.2882,
        "meta_ephemeris_type": 0,
        "meta_classification_type": "U",
        "meta_norad_cat_id": 33673,
        "meta_element_set_no": 999,
        "meta_rev_at_epoch": 89830,
        "meta_bstar": 0.00098940102,
        "meta_mean_motion_dot": 1.364e-05,
        "meta_mean_motion_ddot": 0,
        "tle_line1": "1 33673U 99025DFJ 25341.60612351  .00001364  00000+0  98940-3 0  9992",
        "tle_line2": "2 33673  99.3450  28.3453 0107458 238.2100 277.2882 13.95529173898309"
      },
      "geometry": {
        "type": "Point",
        "coordinates": [
          -151.16684537152483,
          -14.42116165954219
        ]
      }
    },
    {
      "type": "Feature",
      "properties": {
        "norad_id": 33674,
        "name": "FENGYUN 1C DEB",
        "group": "fengyun-1c-debris",
        "lat": -43.90886061459774,
        "lon": -153.74779533735514,
        "alt_km": 837.021695744228,
        "timestamp": "2025-12-10T11:33:53.671985+00:00",
        "meta_object_name": "FENGYUN 1C DEB",
        "meta_object_id": "1999-025DFK",
        "meta_epoch": "2025-12-10T01:44:34.105344",
        "meta_mean_motion": 13.76869098,
        "meta_eccentricity": 0.0211028,
        "meta_inclination": 98.6054,
        "meta_ra_of_asc_node": 34.2631,
        "meta_arg_of_pericenter": 247.2978,
        "meta_mean_anomaly": 110.5744,
        "meta_ephemeris_type": 0,
        "meta_classification_type": "U",
        "meta_norad_cat_id": 33674,
        "meta_element_set_no": 999,
        "meta_rev_at_epoch": 88328,
        "meta_bstar": 0.0025657,
        "meta_mean_motion_dot": 2.938e-05,
        "meta_mean_motion_ddot": 0,
        "tle_line1": "1 33674U 99025DFK 25344.07261696  .00002938  00000+0  25657-2 0  9991",
        "tle_line2": "2 33674  98.6054  34.2631 0211028 247.2978 110.5744 13.76869098883287"
      },
      "geometry": {
        "type": "Point",
        "coordinates": [
          -153.74779533735514,
          -43.90886061459774
        ]
      }
    },
    {
      "type": "Feature",
      "properties": {
        "norad_id": 33676,
        "name": "FENGYUN 1C DEB",
        "group": "fengyun-1c-debris",
        "lat": 74.75509632752123,
        "lon": -27.15450905742059,
        "alt_km": 619.3554133967973,
        "timestamp": "2025-12-10T11:33:53.671995+00:00",
        "meta_object_name": "FENGYUN 1C DEB",
        "meta_object_id": "1999-025DFM",
        "meta_epoch": "2025-12-08T00:40:06.077568",
        "meta_mean_motion": 14.35554956,
        "meta_eccentricity": 0.02051706,
        "meta_inclination": 99.0963,
        "meta_ra_of_asc_node": 6.2622,
        "meta_arg_of_pericenter": 83.3404,
        "meta_mean_anomaly": 279.1085,
        "meta_ephemeris_type": 0,
        "meta_classification_type": "U",
        "meta_norad_cat_id": 33676,
        "meta_element_set_no": 999,
        "meta_rev_at_epoch": 65243,
        "meta_bstar": 0.00019771419,
        "meta_mean_motion_dot": 6.68e-06,
        "meta_mean_motion_ddot": 0,
        "tle_line1": "1 33676U 99025DFM 25342.02784812  .00000668  00000+0  19771-3 0  9995",
        "tle_line2": "2 33676  99.0963   6.2622 0205170  83.3404 279.1085 14.35554956652437"
      },
      "geometry": {
        "type": "Point",
        "coordinates": [
          -27.15450905742059,
          74.75509632752123
        ]
      }
    },
    {
      "type": "Feature",
      "properties": {
        "norad_id": 33678,
        "name": "FENGYUN 1C DEB",
        "group": "fengyun-1c-debris",
        "lat": -69.2864165134087,
        "lon": 74.74480974288103,
        "alt_km": 637.4590796483271,
        "timestamp": "2025-12-10T11:33:53.672023+00:00",
        "meta_object_name": "FENGYUN 1C DEB",
        "meta_object_id": "1999-025DFP",
        "meta_epoch": "2025-12-06T09:59:52.156896",
        "meta_mean_motion": 14.47279188,
        "meta_eccentricity": 0.02049845,
        "meta_inclination": 99.0439,
        "meta_ra_of_asc_node": 45.4893,
        "meta_arg_of_pericenter": 255.6599,
        "meta_mean_anomaly": 102.1757,
        "meta_ephemeris_type": 0,
        "meta_classification_type": "U",
        "meta_norad_cat_id": 33678,
        "meta_element_set_no": 999,
        "meta_rev_at_epoch": 95004,
        "meta_bstar": 0.0013249114,
        "meta_mean_motion_dot": 6.253e-05,
        "meta_mean_motion_ddot": 0,
        "tle_line1": "1 33678U 99025DFP 25340.41657589  .00006253  00000+0  13249-2 0  9997",
        "tle_line2": "2 33678  99.0439  45.4893 0204984 255.6599 102.1757 14.47279188950046"
      },
      "geometry": {
        "type": "Point",
        "coordinates": [
          74.74480974288103,
          -69.2864165134087
        ]
      }
    },
    {
      "type": "Feature",
      "properties": {
        "norad_id": 33679,
        "name": "FENGYUN 1C DEB",
        "group": "fengyun-1c-debris",
        "lat": 78.67017978360475,
        "lon": -4.670977189489968,
        "alt_km": 626.5036841961146,
        "timestamp": "2025-12-10T11:33:53.672046+00:00",
        "meta_object_name": "FENGYUN 1C DEB",
        "meta_object_id": "1999-025DFQ",
        "meta_epoch": "2025-12-10T03:12:06.335424",
        "meta_mean_motion": 15.02412745,
        "meta_eccentricity": 0.014927,
        "meta_inclination": 99.3506,
        "meta_ra_of_asc_node": 50.2347,
        "meta_arg_of_pericenter": 308.1239,
        "meta_mean_anomaly": 50.6601,
        "meta_ephemeris_type": 0,
        "meta_classification_type": "U",
        "meta_norad_cat_id": 33679,
        "meta_element_set_no": 999,
        "meta_rev_at_epoch": 94084,
        "meta_bstar": 0.0019275,
        "meta_mean_motion_dot": 0.00032579,
        "meta_mean_motion_ddot": 0,
        "tle_line1": "1 33679U 99025DFQ 25344.13340666  .00032579  00000+0  19275-2 0  9991",
        "tle_line2": "2 33679  99.3506  50.2347 0149270 308.1239  50.6601 15.02412745940846"
      },
      "geometry": {
        "type": "Point",
        "coordinates": [
          -4.670977189489968,
          78.67017978360475
        ]
      }
    }
  ]
}